{"fetched_at":"2026-07-15T17:47:10.720Z","source":"https://celestrak.org/NORAD/elements/gp.php?NAME=GLOBAL&FORMAT=JSON","constellation":"blacksky-gen2","records":[{"OBJECT_NAME":"GLOBAL-2","OBJECT_ID":"2018-099BG","EPOCH":"2026-07-15T01:30:17.192736","CLASSIFICATION_TYPE":"U","MEAN_MOTION":15.08825093,"ECCENTRICITY":0.0007407,"INCLINATION":97.3549,"RA_OF_ASC_NODE":231.417,"ARG_OF_PERICENTER":67.1895,"MEAN_ANOMALY":293.0115,"EPHEMERIS_TYPE":0,"NORAD_CAT_ID":43812,"ELEMENT_SET_NO":999,"REV_AT_EPOCH":41611,"BSTAR":0.00010464,"MEAN_MOTION_DOT":0.00001587,"MEAN_MOTION_DDOT":0},{"OBJECT_NAME":"GLOBAL-4","OBJECT_ID":"2019-054E","EPOCH":"2026-07-14T22:59:47.641056","CLASSIFICATION_TYPE":"U","MEAN_MOTION":15.67063678,"ECCENTRICITY":0.0005343,"INCLINATION":45.0057,"RA_OF_ASC_NODE":75.8398,"ARG_OF_PERICENTER":195.2427,"MEAN_ANOMALY":164.8311,"EPHEMERIS_TYPE":0,"NORAD_CAT_ID":44499,"ELEMENT_SET_NO":999,"REV_AT_EPOCH":38471,"BSTAR":0.00034612,"MEAN_MOTION_DOT":0.00037636,"MEAN_MOTION_DDOT":0},{"OBJECT_NAME":"GLOBAL-9","OBJECT_ID":"2021-023G","EPOCH":"2026-07-15T03:30:59.491296","CLASSIFICATION_TYPE":"U","MEAN_MOTION":15.47610662,"ECCENTRICITY":0.0003413,"INCLINATION":44.9819,"RA_OF_ASC_NODE":93.2525,"ARG_OF_PERICENTER":169.6006,"MEAN_ANOMALY":190.4955,"EPHEMERIS_TYPE":0,"NORAD_CAT_ID":47971,"ELEMENT_SET_NO":999,"REV_AT_EPOCH":29927,"BSTAR":0.0002412,"MEAN_MOTION_DOT":0.00012373,"MEAN_MOTION_DDOT":0},{"OBJECT_NAME":"GLOBAL-14","OBJECT_ID":"2021-106A","EPOCH":"2026-07-15T03:46:26.863104","CLASSIFICATION_TYPE":"U","MEAN_MOTION":15.51825931,"ECCENTRICITY":0.0017791,"INCLINATION":42.0036,"RA_OF_ASC_NODE":124.6908,"ARG_OF_PERICENTER":223.8384,"MEAN_ANOMALY":136.1049,"EPHEMERIS_TYPE":0,"NORAD_CAT_ID":49469,"ELEMENT_SET_NO":999,"REV_AT_EPOCH":26247,"BSTAR":0.00026475,"MEAN_MOTION_DOT":0.00016065,"MEAN_MOTION_DDOT":0},{"OBJECT_NAME":"GLOBAL-12","OBJECT_ID":"2021-115BA","EPOCH":"2026-07-14T12:39:15.638112","CLASSIFICATION_TYPE":"U","MEAN_MOTION":15.55307022,"ECCENTRICITY":0.00028592,"INCLINATION":53.1946,"RA_OF_ASC_NODE":272.9118,"ARG_OF_PERICENTER":70.9256,"MEAN_ANOMALY":289.2065,"EPHEMERIS_TYPE":0,"NORAD_CAT_ID":49772,"ELEMENT_SET_NO":999,"REV_AT_EPOCH":26015,"BSTAR":0.00028636433,"MEAN_MOTION_DOT":0.0001933,"MEAN_MOTION_DDOT":0},{"OBJECT_NAME":"GLOBAL-13","OBJECT_ID":"2021-115BB","EPOCH":"2026-07-14T20:13:20.501760","CLASSIFICATION_TYPE":"U","MEAN_MOTION":15.47101599,"ECCENTRICITY":0.00006186,"INCLINATION":53.1976,"RA_OF_ASC_NODE":283.0159,"ARG_OF_PERICENTER":157.3954,"MEAN_ANOMALY":202.7082,"EPHEMERIS_TYPE":0,"NORAD_CAT_ID":49773,"ELEMENT_SET_NO":999,"REV_AT_EPOCH":26004,"BSTAR":0.00023790896,"MEAN_MOTION_DOT":0.00011832,"MEAN_MOTION_DDOT":0},{"OBJECT_NAME":"GLOBAL-17","OBJECT_ID":"2021-120A","EPOCH":"2026-07-15T04:36:46.327104","CLASSIFICATION_TYPE":"U","MEAN_MOTION":15.53716103,"ECCENTRICITY":0.0013346,"INCLINATION":41.9932,"RA_OF_ASC_NODE":242.2316,"ARG_OF_PERICENTER":90.7653,"MEAN_ANOMALY":269.4721,"EPHEMERIS_TYPE":0,"NORAD_CAT_ID":49949,"ELEMENT_SET_NO":999,"REV_AT_EPOCH":25925,"BSTAR":0.00023572,"MEAN_MOTION_DOT":0.00015249,"MEAN_MOTION_DDOT":0},{"OBJECT_NAME":"GLOBAL-16","OBJECT_ID":"2021-120B","EPOCH":"2026-07-14T14:25:18.366528","CLASSIFICATION_TYPE":"U","MEAN_MOTION":15.5146569,"ECCENTRICITY":0.00114291,"INCLINATION":41.9936,"RA_OF_ASC_NODE":250.024,"ARG_OF_PERICENTER":75.5872,"MEAN_ANOMALY":284.624,"EPHEMERIS_TYPE":0,"NORAD_CAT_ID":49950,"ELEMENT_SET_NO":999,"REV_AT_EPOCH":25910,"BSTAR":0.00024918033,"MEAN_MOTION_DOT":0.00014845,"MEAN_MOTION_DDOT":0},{"OBJECT_NAME":"GLOBAL-18","OBJECT_ID":"2022-034B","EPOCH":"2026-07-15T04:02:05.472096","CLASSIFICATION_TYPE":"U","MEAN_MOTION":15.47220221,"ECCENTRICITY":0.0004511,"INCLINATION":52.9818,"RA_OF_ASC_NODE":122.8125,"ARG_OF_PERICENTER":25.8089,"MEAN_ANOMALY":334.3141,"EPHEMERIS_TYPE":0,"NORAD_CAT_ID":52196,"ELEMENT_SET_NO":999,"REV_AT_EPOCH":24129,"BSTAR":0.00025411,"MEAN_MOTION_DOT":0.00012726,"MEAN_MOTION_DDOT":0},{"OBJECT_NAME":"GLOBAL-19","OBJECT_ID":"2023-041B","EPOCH":"2026-07-15T00:22:42.693888","CLASSIFICATION_TYPE":"U","MEAN_MOTION":15.38679814,"ECCENTRICITY":0.0009674,"INCLINATION":42.0024,"RA_OF_ASC_NODE":39.5238,"ARG_OF_PERICENTER":217.2797,"MEAN_ANOMALY":142.7371,"EPHEMERIS_TYPE":0,"NORAD_CAT_ID":55982,"ELEMENT_SET_NO":999,"REV_AT_EPOCH":18621,"BSTAR":0.00021101,"MEAN_MOTION_DOT":0.00007997,"MEAN_MOTION_DDOT":0},{"OBJECT_NAME":"GLOBAL-5","OBJECT_ID":"2023-041C","EPOCH":"2026-07-15T01:09:45.884736","CLASSIFICATION_TYPE":"U","MEAN_MOTION":15.38692785,"ECCENTRICITY":0.0008518,"INCLINATION":42.0014,"RA_OF_ASC_NODE":38.8593,"ARG_OF_PERICENTER":212.792,"MEAN_ANOMALY":147.2392,"EPHEMERIS_TYPE":0,"NORAD_CAT_ID":55983,"ELEMENT_SET_NO":999,"REV_AT_EPOCH":18622,"BSTAR":0.00021805,"MEAN_MOTION_DOT":0.00008274,"MEAN_MOTION_DDOT":0}]}
