GLOBAL-2                
1 43812U 18099BG  26196.06269899  .00001587  00000+0  10464-3 0  9996
2 43812  97.3549 231.4170 0007407  67.1895 293.0115 15.08825093416114
GLOBAL-4                
1 44499U 19054E   26195.95819029  .00037636  00000+0  34612-3 0  9998
2 44499  45.0057  75.8398 0005343 195.2427 164.8311 15.67063678384714
GLOBAL-9                
1 47971U 21023G   26196.14652189  .00012373  00000+0  24120-3 0  9993
2 47971  44.9819  93.2525 0003413 169.6006 190.4955 15.47610662299270
GLOBAL-14               
1 49469U 21106A   26196.15725536  .00016065  00000+0  26475-3 0  9994
2 49469  42.0036 124.6908 0017791 223.8384 136.1049 15.51825931262479
GLOBAL-12               
1 49772U 21115BA  26195.52726433  .00019330  00000+0  28636-3 0  9997
2 49772  53.1946 272.9118 0002859  70.9256 289.2065 15.55307022260158
GLOBAL-13               
1 49773U 21115BB  26195.84259840  .00011832  00000+0  23791-3 0  9992
2 49773  53.1976 283.0159 0000618 157.3954 202.7082 15.47101599260045
GLOBAL-17               
1 49949U 21120A   26196.19220286  .00015249  00000+0  23572-3 0  9997
2 49949  41.9932 242.2316 0013346  90.7653 269.4721 15.53716103259258
GLOBAL-16               
1 49950U 21120B   26195.60090702  .00014845  00000+0  24918-3 0  9998
2 49950  41.9936 250.0240 0011429  75.5872 284.6240 15.51465690259100
GLOBAL-18               
1 52196U 22034B   26196.16811889  .00012726  00000+0  25411-3 0  9993
2 52196  52.9818 122.8125 0004511  25.8089 334.3141 15.47220221241295
GLOBAL-19               
1 55982U 23041B   26196.01577192  .00007997  00000+0  21101-3 0  9994
2 55982  42.0024  39.5238 0009674 217.2797 142.7371 15.38679814186219
GLOBAL-5                
1 55983U 23041C   26196.04844774  .00008274  00000+0  21805-3 0  9991
2 55983  42.0014  38.8593 0008518 212.7920 147.2392 15.38692785186225
